NORAD_CAT_ID,OBJECT_NAME,OBJECT_TYPE,EPOCH,MEAN_MOTION,ECCENTRICITY,INCLINATION,RA_OF_ASC_NODE,ARG_OF_PERICENTER,MEAN_ANOMALY,BSTAR,MEAN_MOTION_DOT,MEAN_MOTION_DDOT,TLE_LINE0,TLE_LINE1,TLE_LINE2,SEMIMAJOR_AXIS,PERIOD,APOGEE,PERIGEE,DECAYED
53026.0,STARLINK-4119,PAYLOAD,2023-08-18 10:07:35,15.08832804,0.000117,53.219,318.215,84.0111,276.1014,1.5366e-05,-4.3e-07,0.0,0 STARLINK-4119,1 53026U 22076AS  23230.42194253 -.00000043  00000-0  15366-4 0  9996,2 53026  53.2190 318.2150 0001170  84.0111 276.1014 15.08832804 62415,6917.902,95.438,540.577,538.958,0.0
53026.0,STARLINK-4119,PAYLOAD,2023-08-19 11:33:45,15.08842605,0.0001281,53.2183,313.4575,83.6814,276.4324,9.2402e-05,1.183e-05,0.0,0 STARLINK-4119,1 53026U 22076AS  23231.48177660  .00001183  00000-0  92402-4 0  9997,2 53026  53.2183 313.4575 0001281  83.6814 276.4324 15.08842605 62577,6917.872,95.437,540.624,538.851,0.0
53026.0,STARLINK-4119,PAYLOAD,2023-08-20 11:24:32,15.08839878,0.0001328,53.2177,308.997,79.2303,280.8838,0.0001614,2.282e-05,0.0,0 STARLINK-4119,1 53026U 22076AS  23232.47538095  .00002282  00000-0  16140-3 0  9995,2 53026  53.2177 308.9970 0001328  79.2303 280.8838 15.08839878 62728,6917.881,95.438,540.664,538.827,0.0
53026.0,STARLINK-4119,PAYLOAD,2023-08-22 04:44:34,15.08838635,0.0001253,53.2156,301.2665,71.5914,288.5214,0.00011077,1.475e-05,0.0,0 STARLINK-4119,1 53026U 22076AS  23234.19762202  .00001475  00000-0  11077-3 0  9992,2 53026  53.2156 301.2665 0001253  71.5914 288.5214 15.08838635 62983,6917.885,95.438,540.616,538.883,0.0
53026.0,STARLINK-4119,PAYLOAD,2023-08-23 10:56:54,15.08840559,0.0001313,53.2176,295.6161,95.1846,264.9296,6.1674e-05,6.94e-06,0.0,0 STARLINK-4119,1 53026U 22076AS  23235.45618076  .00000694  00000-0  61674-4 0  9992,2 53026  53.2176 295.6161 0001313  95.1846 264.9296 15.08840559 63173,6917.879,95.438,540.652,538.835,0.0
53026.0,STARLINK-4119,PAYLOAD,2023-08-24 10:47:41,15.08839888,0.000133,53.2175,291.1549,99.465,260.6492,9.6887e-05,1.254e-05,0.0,0 STARLINK-4119,1 53026U 22076AS  23236.44978107  .00001254  00000-0  96887-4 0  9993,2 53026  53.2175 291.1549 0001330  99.4650 260.6492 15.08839888 62850,6917.881,95.438,540.666,538.826,0.0
53026.0,STARLINK-4119,PAYLOAD,2023-08-25 02:41:32,15.0883795,0.0001376,53.2174,288.1817,100.4178,259.697,5.6672e-05,6.14e-06,0.0,0 STARLINK-4119,1 53026U 22076AS  23237.11218442  .00000614  00000-0  56672-4 0  9994,2 53026  53.2174 288.1817 0001376 100.4178 259.6970 15.08837950 63422,6917.887,95.438,540.704,538.8,0.0
53026.0,STARLINK-4119,PAYLOAD,2023-08-25 09:03:05,15.08835208,0.0001346,53.2167,286.9912,95.5753,264.5393,2.517e-05,1.13e-06,0.0,0 STARLINK-4119,1 53026U 22076AS  23237.37714759  .00000113  00000-0  25170-4 0  9997,2 53026  53.2167 286.9912 0001346  95.5753 264.5393 15.08835208 62995,6917.895,95.438,540.691,538.829,0.0
53026.0,STARLINK-4119,PAYLOAD,2023-08-26 10:29:15,15.08842137,0.0001343,53.2164,282.2327,92.9457,267.1689,6.0557e-05,6.76e-06,0.0,0 STARLINK-4119,1 53026U 22076AS  23238.43698444  .00000676  00000-0  60557-4 0  9999,2 53026  53.2164 282.2327 0001343  92.9457 267.1689 15.08842137 63627,6917.874,95.437,540.668,538.81,0.0
53026.0,STARLINK-4119,PAYLOAD,2023-08-27 08:44:39,15.08838979,0.0001392,53.2165,278.0692,92.0595,268.0557,9.2164e-05,1.179e-05,0.0,0 STARLINK-4119,1 53026U 22076AS  23239.36434676  .00001179  00000-0  92164-4 0  9995,2 53026  53.2165 278.0692 0001392  92.0595 268.0557 15.08838979 63290,6917.884,95.438,540.711,538.786,0.0
53026.0,STARLINK-4119,PAYLOAD,2023-08-27 10:20:02,15.08839368,0.0001352,53.2163,277.7717,90.0256,270.0891,9.2882e-05,1.191e-05,0.0,0 STARLINK-4119,1 53026U 22076AS  23239.43058648  .00001191  00000-0  92882-4 0  9995,2 53026  53.2163 277.7717 0001352  90.0256 270.0891 15.08839368 63309,6917.882,95.438,540.683,538.812,0.0
53026.0,STARLINK-4119,PAYLOAD,2023-08-28 02:13:53,15.08842551,0.0001368,53.2164,274.7981,87.0203,273.0946,5.2459e-05,5.47e-06,0.0,0 STARLINK-4119,1 53026U 22076AS  23240.09298608  .00000547  00000-0  52459-4 0  9991,2 53026  53.2164 274.7981 0001368  87.0203 273.0946 15.08842551 63879,6917.873,95.437,540.684,538.791,0.0
53026.0,STARLINK-4119,PAYLOAD,2023-08-28 19:43:08,15.0884372,0.000136,53.2166,271.5278,88.2418,271.8729,5.9528e-05,6.6e-06,0.0,0 STARLINK-4119,1 53026U 22076AS  23240.82162321  .00000660  00000-0  59528-4 0  9994,2 53026  53.2166 271.5278 0001360  88.2418 271.8729 15.08843720 63513,6917.869,95.437,540.675,538.793,0.0
53026.0,STARLINK-4119,PAYLOAD,2023-08-29 08:26:13,15.08841232,0.0001418,53.2171,269.1491,92.343,267.7725,4.4927e-05,4.27e-06,0.0,0 STARLINK-4119,1 53026U 22076AS  23241.35154482  .00000427  00000-0  44927-4 0  9990,2 53026  53.2171 269.1491 0001418  92.3430 267.7725 15.08841232 64060,6917.877,95.437,540.723,538.761,0.0
53026.0,STARLINK-4119,PAYLOAD,2023-08-30 08:17:00,15.08836889,0.0001498,53.2167,264.6879,94.8109,265.3054,-2.992e-06,-3.36e-06,0.0,0 STARLINK-4119,1 53026U 22076AS  23242.34514937 -.00000336  00000-0 -29920-5 0  9993,2 53026  53.2167 264.6879 0001498  94.8109 265.3054 15.08836889 64211,6917.89,95.438,540.791,538.719,0.0
53026.0,STARLINK-4119,PAYLOAD,2023-08-31 01:46:15,15.08838481,0.0001408,53.2161,261.418,88.4837,271.6316,4.8108e-05,4.78e-06,0.0,0 STARLINK-4119,1 53026U 22076AS  23243.07378773  .00000478  00000-0  48108-4 0  9993,2 53026  53.2161 261.4180 0001408  88.4837 271.6316 15.08838481 63853,6917.885,95.438,540.724,538.776,0.0
53026.0,STARLINK-4119,PAYLOAD,2023-09-01 01:37:02,15.08837369,0.0001377,53.2157,256.9558,85.0436,275.0714,5.8988e-05,6.51e-06,0.0,0 STARLINK-4119,1 53026U 22076AS  23244.06738993  .00000651  00000-0  58988-4 0  9997,2 53026  53.2157 256.9558 0001377  85.0436 275.0714 15.08837369 64472,6917.888,95.438,540.706,538.801,0.0
53026.0,STARLINK-4119,PAYLOAD,2023-09-01 07:58:35,15.08838743,0.0001362,53.2156,255.7661,84.476,275.6388,6.4938e-05,7.46e-06,0.0,0 STARLINK-4119,1 53026U 22076AS  23244.33234962  .00000746  00000-0  64938-4 0  9991,2 53026  53.2156 255.7661 0001362  84.4760 275.6388 15.08838743 64043,6917.884,95.438,540.691,538.807,0.0
53026.0,STARLINK-4119,PAYLOAD,2023-09-01 17:30:53,15.08838801,0.0001374,53.2154,253.9819,84.9784,275.1365,5.3688e-05,5.67e-06,0.0,0 STARLINK-4119,1 53026U 22076AS  23244.72979030  .00000567  00000-0  53688-4 0  9997,2 53026  53.2154 253.9819 0001374  84.9784 275.1365 15.08838801 64102,6917.884,95.438,540.7,538.799,0.0
53026.0,STARLINK-4119,PAYLOAD,2023-09-02 07:49:21,15.08841422,0.0001363,53.2174,251.3068,92.8772,267.2376,5.95e-05,6.59e-06,0.0,0 STARLINK-4119,1 53026U 22076AS  23245.32594892  .00000659  00000-0  59500-4 0  9994,2 53026  53.2174 251.3068 0001363  92.8772 267.2376 15.08841422 64663,6917.876,95.437,540.684,538.798,0.0
53026.0,STARLINK-4119,PAYLOAD,2023-09-02 17:21:40,15.08840552,0.0001312,53.2178,249.5228,89.7602,270.354,6.1617e-05,6.93e-06,0.0,0 STARLINK-4119,1 53026U 22076AS  23245.72338916  .00000693  00000-0  61617-4 0  9991,2 53026  53.2178 249.5228 0001312  89.7602 270.3540 15.08840552 64251,6917.879,95.438,540.651,538.836,0.0
53026.0,STARLINK-4119,PAYLOAD,2023-09-03 06:04:46,15.08836485,0.0001429,53.2177,247.1441,90.096,270.0196,2.5239e-05,1.14e-06,0.0,0 STARLINK-4119,1 53026U 22076AS  23246.25331420  .00000114  00000-0  25239-4 0  9991,2 53026  53.2177 247.1441 0001429  90.0960 270.0196 15.08836485 64807,6917.891,95.438,540.745,538.768,0.0
53026.0,STARLINK-4119,PAYLOAD,2023-09-03 12:26:18,15.08841307,0.0001459,53.2157,245.9536,87.5369,272.579,5.5147e-05,5.9e-06,0.0,0 STARLINK-4119,1 53026U 22076AS  23246.51827017  .00000590  00000-0  55147-4 0  9991,2 53026  53.2157 245.9536 0001459  87.5369 272.5790 15.08841307 64371,6917.876,95.437,540.751,538.732,0.0
53026.0,STARLINK-4119,PAYLOAD,2023-09-04 09:06:19,15.08835044,0.0001343,53.2149,242.0864,94.4091,265.7055,2.5368e-05,1.16e-06,0.0,0 STARLINK-4119,1 53026U 22076AS  23247.37939676  .00000116  00000-0  25368-4 0  9997,2 53026  53.2149 242.0864 0001343  94.4091 265.7055 15.08835044 64970,6917.896,95.438,540.69,538.831,0.0
53026.0,STARLINK-4119,PAYLOAD,2023-09-05 10:32:29,15.08841476,0.0001401,53.2156,237.3288,93.1017,267.0135,7.1117e-05,8.44e-06,0.0,0 STARLINK-4119,1 53026U 22076AS  23248.43923318  .00000844  00000-0  71117-4 0  9992,2 53026  53.2156 237.3288 0001401  93.1017 267.0135 15.08841476 65133,6917.876,95.437,540.71,538.772,0.0
53026.0,STARLINK-4119,PAYLOAD,2023-09-06 02:26:21,15.08838337,0.0001409,53.2157,234.3555,92.3528,267.7625,8.0951e-05,1.001e-05,0.0,0 STARLINK-4119,1 53026U 22076AS  23249.10163553  .00001001  00000-0  80951-4 0  9996,2 53026  53.2157 234.3555 0001409  92.3528 267.7625 15.08838337 64765,6917.885,95.438,540.725,538.776,0.0
53026.0,STARLINK-4119,PAYLOAD,2023-09-06 23:06:22,15.08831743,0.000145,53.2163,230.4897,93.5907,266.5251,0.00015529,2.184e-05,0.0,0 STARLINK-4119,1 53026U 22076AS  23249.96275887  .00002184  00000-0  15529-3 0  9995,2 53026  53.2163 230.4897 0001450  93.5907 266.5251 15.08831743 65361,6917.906,95.438,540.774,538.768,0.0
53026.0,STARLINK-4119,PAYLOAD,2023-09-07 08:38:41,15.08839264,0.000141,53.2164,228.7049,90.9323,269.1831,5.4005e-05,5.72e-06,0.0,0 STARLINK-4119,1 53026U 22076AS  23250.36019706  .00000572  00000-0  54005-4 0  9999,2 53026  53.2164 228.7049 0001410  90.9323 269.1831 15.08839264 64953,6917.883,95.438,540.723,538.772,0.0
53026.0,STARLINK-4119,PAYLOAD,2023-09-08 02:07:55,15.08838973,0.0001359,53.2152,225.4342,86.5276,273.5872,4.0735e-05,3.6e-06,0.0,0 STARLINK-4119,1 53026U 22076AS  23251.08883731  .00000360  00000-0  40735-4 0  9996,2 53026  53.2152 225.4342 0001359  86.5276 273.5872 15.08838973 65535,6917.884,95.438,540.689,538.808,0.0
53026.0,STARLINK-4119,PAYLOAD,2023-09-08 10:04:50,15.08846584,0.0001402,53.2165,223.9471,87.2852,272.83,0.00010384,1.365e-05,0.0,0 STARLINK-4119,1 53026U 22076AS  23251.42003025  .00001365  00000-0  10384-3 0  9996,2 53026  53.2165 223.9471 0001402  87.2852 272.8300 15.08846584 65111,6917.86,95.437,540.695,538.755,0.0
